STARLINK-32468          
1 62149U 24224L   26068.25273075  .00039213  00000+0  14269-2 0  9990
2 62149  43.0007 160.5338 0000853 242.2543 117.8222 15.27581167 72254
HAWK-11A                
1 62382U 24247F   26068.51231358  .00009457  00000+0  34106-3 0  9991
2 62382  44.9941 114.3328 0005466 327.3713  32.6832 15.28849427 67741
